{
  "type": "FeatureCollection",
  "features": [
    {
      "type": "Feature",
      "properties": {
        "norad_id": 66513,
        "name": "STARLINK-35692",
        "group": "last-30-days",
        "lat": -30.985219428503456,
        "lon": 98.13142867241052,
        "alt_km": 417.02516098734213,
        "timestamp": "2025-12-10T11:33:52.171774+00:00",
        "meta_object_name": "STARLINK-35692",
        "meta_object_id": "2025-263AE",
        "meta_epoch": "2025-12-10T04:00:01.998720",
        "meta_mean_motion": 15.50498881,
        "meta_eccentricity": 0.0001616,
        "meta_inclination": 43.0007,
        "meta_ra_of_asc_node": 140.0968,
        "meta_arg_of_pericenter": 274.6899,
        "meta_mean_anomaly": 75.0118,
        "meta_ephemeris_type": 0,
        "meta_classification_type": "U",
        "meta_norad_cat_id": 66513,
        "meta_element_set_no": 999,
        "meta_rev_at_epoch": 522,
        "meta_bstar": 0.00095069,
        "meta_mean_motion_dot": 0.00055669,
        "meta_mean_motion_ddot": 0,
        "tle_line1": "1 66513U 25263AE  25344.16668980  .00055669  00000+0  95069-3 0  9993",
        "tle_line2": "2 66513  43.0007 140.0968 0001616 274.6899  75.0118 15.50498881  5224"
      },
      "geometry": {
        "type": "Point",
        "coordinates": [
          98.13142867241052,
          -30.985219428503456
        ]
      }
    },
    {
      "type": "Feature",
      "properties": {
        "norad_id": 66514,
        "name": "SENTINEL-6B",
        "group": "last-30-days",
        "lat": 44.89093531498357,
        "lon": -39.17268994482448,
        "alt_km": 1332.5771878255164,
        "timestamp": "2025-12-10T11:33:52.171786+00:00",
        "meta_object_name": "SENTINEL-6B",
        "meta_object_id": "2025-264A",
        "meta_epoch": "2025-12-08T23:22:28.384896",
        "meta_mean_motion": 12.84031992,
        "meta_eccentricity": 0.00210406,
        "meta_inclination": 66.0385,
        "meta_ra_of_asc_node": 170.2707,
        "meta_arg_of_pericenter": 268.23,
        "meta_mean_anomaly": 91.6307,
        "meta_ephemeris_type": 0,
        "meta_classification_type": "U",
        "meta_norad_cat_id": 66514,
        "meta_element_set_no": 999,
        "meta_rev_at_epoch": 280,
        "meta_bstar": 0.000106025,
        "meta_mean_motion_dot": -3.6e-07,
        "meta_mean_motion_ddot": 0,
        "tle_line1": "1 66514U 25264A   25342.97393964 -.00000036  00000+0  10602-3 0  9998",
        "tle_line2": "2 66514  66.0385 170.2707 0021040 268.2300  91.6307 12.84031992  2809"
      },
      "geometry": {
        "type": "Point",
        "coordinates": [
          -39.17268994482448,
          44.89093531498357
        ]
      }
    },
    {
      "type": "Feature",
      "properties": {
        "norad_id": 66516,
        "name": "STARLINK-35924",
        "group": "last-30-days",
        "lat": 36.99193907753639,
        "lon": -166.7178273631812,
        "alt_km": 410.38131829052963,
        "timestamp": "2025-12-10T11:33:52.171796+00:00",
        "meta_object_name": "STARLINK-35924",
        "meta_object_id": "2025-265A",
        "meta_epoch": "2025-12-10T04:00:01.998720",
        "meta_mean_motion": 15.50615393,
        "meta_eccentricity": 0.0001722,
        "meta_inclination": 42.9999,
        "meta_ra_of_asc_node": 69.0691,
        "meta_arg_of_pericenter": 274.2006,
        "meta_mean_anomaly": 242.4371,
        "meta_ephemeris_type": 0,
        "meta_classification_type": "U",
        "meta_norad_cat_id": 66516,
        "meta_element_set_no": 999,
        "meta_rev_at_epoch": 456,
        "meta_bstar": -0.0023011,
        "meta_mean_motion_dot": -0.0013324,
        "meta_mean_motion_ddot": 0,
        "tle_line1": "1 66516U 25265A   25344.16668980 -.00133240  00000+0 -23011-2 0  9999",
        "tle_line2": "2 66516  42.9999  69.0691 0001722 274.2006 242.4371 15.50615393  4568"
      },
      "geometry": {
        "type": "Point",
        "coordinates": [
          -166.7178273631812,
          36.99193907753639
        ]
      }
    },
    {
      "type": "Feature",
      "properties": {
        "norad_id": 66517,
        "name": "STARLINK-35937",
        "group": "last-30-days",
        "lat": 36.19848074873342,
        "lon": -164.5359194399487,
        "alt_km": 410.39744104703004,
        "timestamp": "2025-12-10T11:33:52.171808+00:00",
        "meta_object_name": "STARLINK-35937",
        "meta_object_id": "2025-265B",
        "meta_epoch": "2025-12-10T04:00:01.998720",
        "meta_mean_motion": 15.50599086,
        "meta_eccentricity": 0.0001691,
        "meta_inclination": 42.9998,
        "meta_ra_of_asc_node": 69.0637,
        "meta_arg_of_pericenter": 273.1151,
        "meta_mean_anomaly": 245.4456,
        "meta_ephemeris_type": 0,
        "meta_classification_type": "U",
        "meta_norad_cat_id": 66517,
        "meta_element_set_no": 999,
        "meta_rev_at_epoch": 458,
        "meta_bstar": -0.001307,
        "meta_mean_motion_dot": -0.00076333,
        "meta_mean_motion_ddot": 0,
        "tle_line1": "1 66517U 25265B   25344.16668980 -.00076333  00000+0 -13070-2 0  9993",
        "tle_line2": "2 66517  42.9998  69.0637 0001691 273.1151 245.4456 15.50599086  4581"
      },
      "geometry": {
        "type": "Point",
        "coordinates": [
          -164.5359194399487,
          36.19848074873342
        ]
      }
    },
    {
      "type": "Feature",
      "properties": {
        "norad_id": 66518,
        "name": "STARLINK-35962",
        "group": "last-30-days",
        "lat": 35.376676266096,
        "lon": -162.42457111958657,
        "alt_km": 410.5264647470358,
        "timestamp": "2025-12-10T11:33:52.171820+00:00",
        "meta_object_name": "STARLINK-35962",
        "meta_object_id": "2025-265C",
        "meta_epoch": "2025-12-10T04:00:01.998720",
        "meta_mean_motion": 15.50535992,
        "meta_eccentricity": 0.0001765,
        "meta_inclination": 42.9997,
        "meta_ra_of_asc_node": 69.0591,
        "meta_arg_of_pericenter": 272.7448,
        "meta_mean_anomaly": 247.7505,
        "meta_ephemeris_type": 0,
        "meta_classification_type": "U",
        "meta_norad_cat_id": 66518,
        "meta_element_set_no": 999,
        "meta_rev_at_epoch": 458,
        "meta_bstar": 0.0005376,
        "meta_mean_motion_dot": 0.00031275,
        "meta_mean_motion_ddot": 0,
        "tle_line1": "1 66518U 25265C   25344.16668980  .00031275  00000+0  53760-3 0  9999",
        "tle_line2": "2 66518  42.9997  69.0591 0001765 272.7448 247.7505 15.50535992  4582"
      },
      "geometry": {
        "type": "Point",
        "coordinates": [
          -162.42457111958657,
          35.376676266096
        ]
      }
    },
    {
      "type": "Feature",
      "properties": {
        "norad_id": 66519,
        "name": "STARLINK-35931",
        "group": "last-30-days",
        "lat": 34.51102792738727,
        "lon": -160.3388842678363,
        "alt_km": 410.8821223213981,
        "timestamp": "2025-12-10T11:33:52.171831+00:00",
        "meta_object_name": "STARLINK-35931",
        "meta_object_id": "2025-265D",
        "meta_epoch": "2025-12-10T04:00:01.998720",
        "meta_mean_motion": 15.50555148,
        "meta_eccentricity": 0.0002132,
        "meta_inclination": 42.9998,
        "meta_ra_of_asc_node": 69.054,
        "meta_arg_of_pericenter": 272.6888,
        "meta_mean_anomaly": 249.7187,
        "meta_ephemeris_type": 0,
        "meta_classification_type": "U",
        "meta_norad_cat_id": 66519,
        "meta_element_set_no": 999,
        "meta_rev_at_epoch": 458,
        "meta_bstar": -0.00011221,
        "meta_mean_motion_dot": -6.913e-05,
        "meta_mean_motion_ddot": 0,
        "tle_line1": "1 66519U 25265D   25344.16668980 -.00006913  00000+0 -11221-3 0  9999",
        "tle_line2": "2 66519  42.9998  69.0540 0002132 272.6888 249.7187 15.50555148  4587"
      },
      "geometry": {
        "type": "Point",
        "coordinates": [
          -160.3388842678363,
          34.51102792738727
        ]
      }
    },
    {
      "type": "Feature",
      "properties": {
        "norad_id": 66520,
        "name": "STARLINK-35952",
        "group": "last-30-days",
        "lat": 33.6095318517732,
        "lon": -158.29540175221194,
        "alt_km": 410.78034258902335,
        "timestamp": "2025-12-10T11:33:52.171841+00:00",
        "meta_object_name": "STARLINK-35952",
        "meta_object_id": "2025-265E",
        "meta_epoch": "2025-12-10T04:00:01.998720",
        "meta_mean_motion": 15.50553376,
        "meta_eccentricity": 0.0001702,
        "meta_inclination": 42.9996,
        "meta_ra_of_asc_node": 69.049,
        "meta_arg_of_pericenter": 275.0464,
        "meta_mean_anomaly": 249.2798,
        "meta_ephemeris_type": 0,
        "meta_classification_type": "U",
        "meta_norad_cat_id": 66520,
        "meta_element_set_no": 999,
        "meta_rev_at_epoch": 458,
        "meta_bstar": -0.00010914,
        "meta_mean_motion_dot": -6.733e-05,
        "meta_mean_motion_ddot": 0,
        "tle_line1": "1 66520U 25265E   25344.16668980 -.00006733  00000+0 -10914-3 0  9999",
        "tle_line2": "2 66520  42.9996  69.0490 0001702 275.0464 249.2798 15.50553376  4584"
      },
      "geometry": {
        "type": "Point",
        "coordinates": [
          -158.29540175221194,
          33.6095318517732
        ]
      }
    }
  ]
}